PANDORA
1 67395U 80229J   26102.35796296  .00000000  00000-0  37770-3 0    09
2 67395  97.8047 102.0442 0004831  16.8277  93.5737 14.87731804    04
